NORAD_CAT_ID,OBJECT_NAME,OBJECT_TYPE,EPOCH,MEAN_MOTION,ECCENTRICITY,INCLINATION,RA_OF_ASC_NODE,ARG_OF_PERICENTER,MEAN_ANOMALY,BSTAR,MEAN_MOTION_DOT,MEAN_MOTION_DDOT,TLE_LINE0,TLE_LINE1,TLE_LINE2,SEMIMAJOR_AXIS,PERIOD,APOGEE,PERIGEE,DECAYED
53169.0,STARLINK-4117,PAYLOAD,2022-10-22 06:00:00,15.29708367,0.0001503,53.2173,291.4191,59.365,186.2268,-0.039764,-0.01063868,0.0,0 STARLINK-4117,1 53169U 22083AP  22295.25001157 -.01063868  00000-0 -39764-1 0  9994,2 53169  53.2173 291.4191 0001503  59.3650 186.2268 15.29708367 15828,6854.82,94.136,477.716,475.655,0.0
53169.0,STARLINK-4117,PAYLOAD,2022-10-22 14:00:01,15.28985718,0.0001388,53.2161,289.8751,49.7943,231.9883,-0.042837,-0.0111582,0.0,0 STARLINK-4117,1 53169U 22083AP  22295.58334491 -.01115820  00000-0 -42837-1 0  9991,2 53169  53.2161 289.8751 0001388  49.7943 231.9883 15.28985718  1302,6856.98,94.18,479.797,477.893,0.0
53169.0,STARLINK-4117,PAYLOAD,2022-10-22 22:00:00,15.28182487,0.0001465,53.2165,288.3302,49.2696,267.8307,-0.041288,-0.01054551,0.0,0 STARLINK-4117,1 53169U 22083AP  22295.91667824 -.01054551  00000-0 -41288-1 0  9999,2 53169  53.2165 288.3302 0001465  49.2696 267.8307 15.28182487  1309,6859.3830000000025,94.23,482.253,480.24300000000005,0.0
53169.0,STARLINK-4117,PAYLOAD,2022-10-23 06:00:00,15.27433062,0.0001274,53.2166,286.79,61.4801,289.998,-0.042855,-0.01068398,0.0,0 STARLINK-4117,1 53169U 22083AP  22296.25001157 -.01068398  00000-0 -42855-1 0  9993,2 53169  53.2166 286.7900 0001274  61.4801 289.9980 15.27433062 15975,6861.626,94.276,484.365,482.617,0.0
53169.0,STARLINK-4117,PAYLOAD,2022-10-23 14:00:01,15.26679319,0.0001489,53.2163,285.2502,43.8399,341.1066,-0.044226,-0.0107676,0.0,0 STARLINK-4117,1 53169U 22083AP  22296.58334491 -.01076760  00000-0 -44226-1 0  9995,2 53169  53.2163 285.2502 0001489  43.8399 341.1066 15.26679319  1302,6863.884,94.322,486.771,484.727,0.0
53169.0,STARLINK-4117,PAYLOAD,2022-10-23 22:00:00,15.25910705,0.00015,53.2172,283.7099,47.1797,10.3302,-0.044657,-0.01063324,0.0,0 STARLINK-4117,1 53169U 22083AP  22296.91667824 -.01063324  00000-0 -44657-1 0  9991,2 53169  53.2172 283.7099 0001500  47.1797  10.3302 15.25910705  1303,6866.189,94.37,489.084,487.024,0.0
53169.0,STARLINK-4117,PAYLOAD,2022-10-24 06:00:00,15.25159302,0.0001486,53.2166,282.1767,56.3837,32.7663,-0.0462329999999999,-0.01075021,0.0,0 STARLINK-4117,1 53169U 22083AP  22297.25001157 -.01075021  00000-0 -46233-1 0  9999,2 53169  53.2166 282.1767 0001486  56.3837  32.7663 15.25159302 16134,6868.444,94.416,491.33,489.288,0.0
53169.0,STARLINK-4117,PAYLOAD,2022-10-24 14:00:01,15.24397334,0.0001715,53.2165,280.6417,41.82899999999999,78.0553,-0.047119,-0.01071141,0.0,0 STARLINK-4117,1 53169U 22083AP  22297.58334491 -.01071141  00000-0 -47119-1 0  9998,2 53169  53.2165 280.6417 0001715  41.8290  78.0553 15.24397334  1307,6870.733,94.464,493.776,491.419,0.0
53169.0,STARLINK-4117,PAYLOAD,2022-10-24 22:00:00,15.23639555,0.0001834,53.2165,279.1082,40.3473,109.3564,-0.048305,-0.01073246,0.0,0 STARLINK-4117,1 53169U 22083AP  22297.91667824 -.01073246  00000-0 -48305-1 0  9990,2 53169  53.2165 279.1082 0001834  40.3473 109.3564 15.23639555  1300,6873.011,94.511,496.136,493.615,0.0
53169.0,STARLINK-4117,PAYLOAD,2022-10-25 06:00:00,15.22881105,0.0001585,53.2166,277.5791,59.5571,119.0526,-0.049477,-0.01074485,0.0,0 STARLINK-4117,1 53169U 22083AP  22298.25001157 -.01074485  00000-0 -49477-1 0  9996,2 53169  53.2166 277.5791 0001585  59.5571 119.0526 15.22881105 16282,6875.292,94.558,498.247,496.068,0.0
53169.0,STARLINK-4117,PAYLOAD,2022-10-25 14:00:01,15.22135495,0.0001658,53.2163,276.0498,49.9646,156.6331,-0.051547,-0.01093165,0.0,0 STARLINK-4117,1 53169U 22083AP  22298.58334491 -.01093165  00000-0 -51547-1 0  9999,2 53169  53.2163 276.0498 0001658  49.9646 156.6331 15.22135495  1306,6877.5369999999975,94.604,500.543,498.262,0.0
53169.0,STARLINK-4117,PAYLOAD,2022-10-25 22:00:01,15.21355519,0.0001719,53.2167,274.5208,45.5383,188.2156,-0.051252,-0.01064674,0.0,0 STARLINK-4117,1 53169U 22083AP  22298.91668981 -.01064674  00000-0 -51252-1 0  9996,2 53169  53.2167 274.5208 0001719  45.5383 188.2156 15.21355519  1306,6879.888000000001,94.652,502.936,500.57,0.0
53169.0,STARLINK-4117,PAYLOAD,2022-10-26 06:00:00,15.20597328,0.0001587,53.2169,272.9973,56.5234,203.335,-0.052521,-0.01066705,0.0,0 STARLINK-4117,1 53169U 22083AP  22299.25001157 -.01066705  00000-0 -52521-1 0  9997,2 53169  53.2169 272.9973 0001587  56.5234 203.3350 15.20597328 16439,6882.175,94.7,505.132,502.947,0.0
53169.0,STARLINK-4117,PAYLOAD,2022-10-26 14:00:01,15.19836751,0.0001445,53.2173,271.4719,55.7031,229.4141,-0.053676,-0.01066118,0.0,0 STARLINK-4117,1 53169U 22083AP  22299.58334491 -.01066118  00000-0 -53676-1 0  9993,2 53169  53.2173 271.4719 0001445  55.7031 229.4141 15.19836751  1306,6884.471,94.747,507.33,505.341,0.0
53169.0,STARLINK-4117,PAYLOAD,2022-10-26 22:00:00,15.19074296,0.0001484,53.2174,269.9489,52.1753,257.2872,-0.05455,-0.0106015,0.0,0 STARLINK-4117,1 53169U 22083AP  22299.91667824 -.01060150  00000-0 -54550-1 0  9991,2 53169  53.2174 269.9489 0001484  52.1753 257.2872 15.19074296  1306,6886.774,94.795,509.661,507.617,0.0
53169.0,STARLINK-4117,PAYLOAD,2022-10-27 06:00:00,15.18325182,0.0001564,53.2169,268.432,47.4433,285.4439,-0.056613,-0.01088936,0.0,0 STARLINK-4117,1 53169U 22083AP  22300.25001157 -.01088936  00000-0 -56613-1 0  9996,2 53169  53.2169 268.4320 0001564  47.4433 285.4439 15.18325182 16589,6889.0390000000025,94.841,511.981,509.827,0.0
53169.0,STARLINK-4117,PAYLOAD,2022-10-27 14:00:01,15.17557754,0.0001543,53.217,266.9118,43.0069,312.4679,-0.057324,-0.01079146,0.0,0 STARLINK-4117,1 53169U 22083AP  22300.58335648 -.01079146  00000-0 -57324-1 0  9990,2 53169  53.2170 266.9118 0001543  43.0069 312.4679 15.17557754  1305,6891.361,94.889,514.29,512.163,0.0
53169.0,STARLINK-4117,PAYLOAD,2022-10-27 22:00:00,15.16795322,0.0001527,53.2174,265.3941,46.5661,330.4528,-0.058221,-0.01072707,0.0,0 STARLINK-4117,1 53169U 22083AP  22300.91667824 -.01072707  00000-0 -58221-1 0  9994,2 53169  53.2174 265.3941 0001527  46.5661 330.4528 15.16795322  1301,6893.67,94.937,516.5880000000002,514.4830000000002,0.0
53169.0,STARLINK-4117,PAYLOAD,2022-10-28 06:00:00,15.16038876,0.0001607,53.2172,263.8817,50.5962,347.1139,-0.059862,-0.01078796,0.0,0 STARLINK-4117,1 53169U 22083AP  22301.25001157 -.01078796  00000-0 -59862-1 0  9999,2 53169  53.2172 263.8817 0001607  50.5962 347.1139 15.16038876 16743,6895.9630000000025,94.984,518.937,516.72,0.0
53169.0,STARLINK-4117,PAYLOAD,2022-10-28 14:00:01,15.15289826,0.0001858,53.217,262.3679,37.5837,19.9659,-0.06207,-0.01093758,0.0,0 STARLINK-4117,1 53169U 22083AP  22301.58335648 -.01093758  00000-0 -62070-1 0  9990,2 53169  53.2170 262.3679 0001858  37.5837  19.9659 15.15289826  1304,6898.236,95.031,521.383,518.819,0.0
53169.0,STARLINK-4117,PAYLOAD,2022-10-28 22:00:01,15.14535255,0.0001751,53.2168,260.8559,39.0958,37.3188,-0.06371,-0.01098411,0.0,0 STARLINK-4117,1 53169U 22083AP  22301.91668981 -.01098411  00000-0 -63710-1 0  9999,2 53169  53.2168 260.8559 0001751  39.0958  37.3188 15.14535255  1304,6900.526999999999,95.079,523.6,521.184,0.0
53169.0,STARLINK-4117,PAYLOAD,2022-10-29 08:00:01,15.13563907,0.0001675999999999,53.2174,258.9703,51.8234,136.8399,-0.0634899999999999,-0.0106731,0.0,0 STARLINK-4117,1 53169U 22083AP  22302.33334491 -.01067310  00000-0 -63490-1 0  9991,2 53169  53.2174 258.9703 0001676  51.8234 136.8399 15.13563907 16900,6903.479,95.14,526.501,524.187,0.0
53169.0,STARLINK-4117,PAYLOAD,2022-10-29 12:00:00,15.13190152,0.0001473,53.2173,258.2155,48.0498,329.1334,-0.064836,-0.01077654,0.0,0 STARLINK-4117,1 53169U 22083AP  22302.50001157 -.01077654  00000-0 -64836-1 0  9997,2 53169  53.2173 258.2155 0001473  48.0498 329.1334 15.13190152  1300,6904.616,95.163,527.498,525.464,0.0
53169.0,STARLINK-4117,PAYLOAD,2022-10-29 22:00:01,15.1224416,0.0002005,53.217,256.3326,38.5969,88.9524,-0.066817,-0.01081244,0.0,0 STARLINK-4117,1 53169U 22083AP  22302.91668981 -.01081244  00000-0 -66817-1 0  9997,2 53169  53.2170 256.3326 0002005  38.5969  88.9524 15.12244160  1304,6907.495,95.223,530.745,527.975,0.0
53169.0,STARLINK-4117,PAYLOAD,2022-10-30 00:00:00,15.12047831,0.0001943999999999,53.2174,255.9565,40.5898,180.7897,-0.066592,-0.01072372,0.0,0 STARLINK-4117,1 53169U 22083AP  22303.00001157 -.01072372  00000-0 -66592-1 0  9996,2 53169  53.2174 255.9565 0001944  40.5898 180.7897 15.12047831 17007,6908.093000000003,95.235,531.3009999999998,528.615,0.0
53169.0,STARLINK-4117,PAYLOAD,2022-10-30 14:00:01,15.10721238,0.000172,53.2173,253.3259,47.0551,109.9556,-0.069362,-0.01076042,0.0,0 STARLINK-4117,1 53169U 22083AP  22303.58334491 -.01076042  00000-0 -69362-1 0  9995,2 53169  53.2173 253.3259 0001720  47.0551 109.9556 15.10721238  1307,6912.136,95.319,535.19,532.812,0.0
53169.0,STARLINK-4117,PAYLOAD,2022-10-30 22:00:01,15.09953656,0.0001784,53.217,251.8256,37.9462,132.5155,-0.0684029999999999,-0.01041443,0.0,0 STARLINK-4117,1 53169U 22083AP  22303.91668981 -.01041443  00000-0 -68403-1 0  9998,2 53169  53.2170 251.8256 0001784  37.9462 132.5155 15.09953656  1309,6914.478,95.367,537.577,535.11,0.0
53169.0,STARLINK-4117,PAYLOAD,2022-10-31 14:00:01,15.08798939,0.000174,53.2161,248.8337,45.895,148.5915,0.019913,0.00331487,0.0,0 STARLINK-4117,1 53169U 22083AP  22304.58334491  .00331487  00000-0  19913-1 0  9997,2 53169  53.2161 248.8337 0001740  45.8950 148.5915 15.08798939  1308,6918.005999999999,95.44,541.075,538.6669999999998,0.0
53169.0,STARLINK-4117,PAYLOAD,2022-10-31 22:00:01,15.08898769,0.0001585999999999,53.2144,247.3425,49.3443,156.8128,0.00024472,3.615e-05,0.0,0 STARLINK-4117,1 53169U 22083AP  22304.91668981  .00003615  00000-0  24472-3 0  9995,2 53169  53.2144 247.3425 0001586  49.3443 156.8128 15.08898769  1305,6917.701,95.434,540.663,538.469,0.0
